{"type": "FeatureCollection", "features": [ {"type": "Feature", "properties": {"norad_id": 30716, "name": "FENGYUN 1C DEB", "group": "fengyun-1c-debris", "lat": -8.766984409155638, "lon": -178.06774427246026, "alt_km": 626.6005108440531, "timestamp": "2025-12-22T11:33:20.717656+00:00", "meta": {"OBJECT_NAME": "FENGYUN 1C DEB", "OBJECT_ID": "1999-025ASA", "EPOCH": "2025-12-21T11:29:45.574944", "MEAN_MOTION": 14.79788038, "ECCENTRICITY": 0.00206906, "INCLINATION": 98.8715, "RA_OF_ASC_NODE": 179.4459, "ARG_OF_PERICENTER": 54.2668, "MEAN_ANOMALY": 359.7646, "EPHEMERIS_TYPE": 0, "CLASSIFICATION_TYPE": "U", "NORAD_CAT_ID": 30716, "ELEMENT_SET_NO": 999, "REV_AT_EPOCH": 97953, "BSTAR": 0.0030225465, "MEAN_MOTION_DOT": 0.0002284, "MEAN_MOTION_DDOT": 0}, "tle": {"line1": "1 30716U 99025ASA 25355.47899971  .00022840  00000+0  30225-2 0  9995", "line2": "2 30716  98.8715 179.4459 0020690  54.2668 359.7646 14.79788038979532"}}, "geometry": {"type": "Point", "coordinates": [-178.06774427246026, -8.766984409155638]}}, {"type": "Feature", "properties": {"norad_id": 30717, "name": "FENGYUN 1C DEB", "group": "fengyun-1c-debris", "lat": -75.39101749549926, "lon": 104.96110223258755, "alt_km": 808.5489419161759, "timestamp": "2025-12-22T11:33:20.717667+00:00", "meta": {"OBJECT_NAME": "FENGYUN 1C DEB", "OBJECT_ID": "1999-025ASB", "EPOCH": "2025-12-21T03:48:25.911072", "MEAN_MOTION": 14.20584881, "ECCENTRICITY": 0.00490009, "INCLINATION": 99.0171, "RA_OF_ASC_NODE": 66.0794, "ARG_OF_PERICENTER": 233.8848, "MEAN_ANOMALY": 125.7787, "EPHEMERIS_TYPE": 0, "CLASSIFICATION_TYPE": "U", "NORAD_CAT_ID": 30717, "ELEMENT_SET_NO": 999, "REV_AT_EPOCH": 96656, "BSTAR": 0.00094660339, "MEAN_MOTION_DOT": 2.014e-05, "MEAN_MOTION_DDOT": 0}, "tle": {"line1": "1 30717U 99025ASB 25355.15863323  .00002014  00000+0  94660-3 0  9998", "line2": "2 30717  99.0171  66.0794 0049000 233.8848 125.7787 14.20584881966568"}}, "geometry": {"type": "Point", "coordinates": [104.96110223258755, -75.39101749549926]}}, {"type": "Feature", "properties": {"norad_id": 30718, "name": "FENGYUN 1C DEB", "group": "fengyun-1c-debris", "lat": 54.17776296494991, "lon": -90.47904173126265, "alt_km": 764.3125348172434, "timestamp": "2025-12-22T11:33:20.717677+00:00", "meta": {"OBJECT_NAME": "FENGYUN 1C DEB", "OBJECT_ID": "1999-025ASC", "EPOCH": "2025-12-21T16:25:46.621632", "MEAN_MOTION": 14.24407407, "ECCENTRICITY": 0.0057174, "INCLINATION": 98.8903, "RA_OF_ASC_NODE": 76.1909, "ARG_OF_PERICENTER": 131.3068, "MEAN_ANOMALY": 229.3052, "EPHEMERIS_TYPE": 0, "CLASSIFICATION_TYPE": "U", "NORAD_CAT_ID": 30718, "ELEMENT_SET_NO": 999, "REV_AT_EPOCH": 96901, "BSTAR": 0.0011815, "MEAN_MOTION_DOT": 2.736e-05, "MEAN_MOTION_DDOT": 0}, "tle": {"line1": "1 30718U 99025ASC 25355.68456738  .00002736  00000+0  11815-2 0  9996", "line2": "2 30718  98.8903  76.1909 0057174 131.3068 229.3052 14.24407407969017"}}, "geometry": {"type": "Point", "coordinates": [-90.47904173126265, 54.17776296494991]}}, {"type": "Feature", "properties": {"norad_id": 30719, "name": "FENGYUN 1C DEB", "group": "fengyun-1c-debris", "lat": -79.46395246759963, "lon": -163.79197934068043, "alt_km": 704.252518451598, "timestamp": "2025-12-22T11:33:20.717687+00:00", "meta": {"OBJECT_NAME": "FENGYUN 1C DEB", "OBJECT_ID": "1999-025ASD", "EPOCH": "2025-12-21T03:02:06.375552", "MEAN_MOTION": 14.59483939, "ECCENTRICITY": 0.00106523, "INCLINATION": 98.8874, "RA_OF_ASC_NODE": 137.4798, "ARG_OF_PERICENTER": 172.891, "MEAN_ANOMALY": 187.2441, "EPHEMERIS_TYPE": 0, "CLASSIFICATION_TYPE": "U", "NORAD_CAT_ID": 30719, "ELEMENT_SET_NO": 999, "REV_AT_EPOCH": 97571, "BSTAR": 0.0021584794, "MEAN_MOTION_DOT": 0.0001021, "MEAN_MOTION_DDOT": 0}, "tle": {"line1": "1 30719U 99025ASD 25355.12646268  .00010210  00000+0  21585-2 0  9996", "line2": "2 30719  98.8874 137.4798 0010652 172.8910 187.2441 14.59483939975718"}}, "geometry": {"type": "Point", "coordinates": [-163.79197934068043, -79.46395246759963]}}, {"type": "Feature", "properties": {"norad_id": 30720, "name": "FENGYUN 1C DEB", "group": "fengyun-1c-debris", "lat": -48.909888061317396, "lon": -179.16115927484728, "alt_km": 778.495295702267, "timestamp": "2025-12-22T11:33:20.717697+00:00", "meta": {"OBJECT_NAME": "FENGYUN 1C DEB", "OBJECT_ID": "1999-025ASE", "EPOCH": "2025-12-20T11:19:26.302944", "MEAN_MOTION": 14.29137577, "ECCENTRICITY": 0.00324193, "INCLINATION": 99.0359, "RA_OF_ASC_NODE": 168.2428, "ARG_OF_PERICENTER": 306.4307, "MEAN_ANOMALY": 110.1757, "EPHEMERIS_TYPE": 0, "CLASSIFICATION_TYPE": "U", "NORAD_CAT_ID": 30720, "ELEMENT_SET_NO": 999, "REV_AT_EPOCH": 97599, "BSTAR": 0.00029074255, "MEAN_MOTION_DOT": 6.94e-06, "MEAN_MOTION_DDOT": 0}, "tle": {"line1": "1 30720U 99025ASE 25354.47183221  .00000694  00000+0  29074-3 0  9997", "line2": "2 30720  99.0359 168.2428 0032419 306.4307 110.1757 14.29137577975999"}}, "geometry": {"type": "Point", "coordinates": [-179.16115927484728, -48.909888061317396]}}, {"type": "Feature", "properties": {"norad_id": 30721, "name": "FENGYUN 1C DEB", "group": "fengyun-1c-debris", "lat": -67.53343836070094, "lon": -73.2899042745724, "alt_km": 651.2782826542043, "timestamp": "2025-12-22T11:33:20.717713+00:00", "meta": {"OBJECT_NAME": "FENGYUN 1C DEB", "OBJECT_ID": "1999-025ASF", "EPOCH": "2025-12-22T04:27:32.052960", "MEAN_MOTION": 14.7221586, "ECCENTRICITY": 0.0028389, "INCLINATION": 98.7102, "RA_OF_ASC_NODE": 128.1539, "ARG_OF_PERICENTER": 310.453, "MEAN_ANOMALY": 172.6995, "EPHEMERIS_TYPE": 0, "CLASSIFICATION_TYPE": "U", "NORAD_CAT_ID": 30721, "ELEMENT_SET_NO": 999, "REV_AT_EPOCH": 97981, "BSTAR": 0.0034654, "MEAN_MOTION_DOT": 0.00022006, "MEAN_MOTION_DDOT": 0}, "tle": {"line1": "1 30721U 99025ASF 25356.18578765  .00022006  00000+0  34654-2 0  9999", "line2": "2 30721  98.7102 128.1539 0028389 310.4530 172.6995 14.72215860979816"}}, "geometry": {"type": "Point", "coordinates": [-73.2899042745724, -67.53343836070094]}}, {"type": "Feature", "properties": {"norad_id": 30723, "name": "FENGYUN 1C DEB", "group": "fengyun-1c-debris", "lat": 49.68006923771526, "lon": -86.58794125003949, "alt_km": 751.94330716681, "timestamp": "2025-12-22T11:33:20.717725+00:00", "meta": {"OBJECT_NAME": "FENGYUN 1C DEB", "OBJECT_ID": "1999-025ASH", "EPOCH": "2025-12-22T04:25:37.406208", "MEAN_MOTION": 14.41457285, "ECCENTRICITY": 0.0016226, "INCLINATION": 98.843, "RA_OF_ASC_NODE": 82.5346, "ARG_OF_PERICENTER": 234.5324, "MEAN_ANOMALY": 154.6014, "EPHEMERIS_TYPE": 0, "CLASSIFICATION_TYPE": "U", "NORAD_CAT_ID": 30723, "ELEMENT_SET_NO": 999, "REV_AT_EPOCH": 97507, "BSTAR": 0.0022122, "MEAN_MOTION_DOT": 7.148e-05, "MEAN_MOTION_DDOT": 0}, "tle": {"line1": "1 30723U 99025ASH 25356.18446072  .00007148  00000+0  22122-2 0  9993", "line2": "2 30723  98.8430  82.5346 0016226 234.5324 154.6014 14.41457285975077"}}, "geometry": {"type": "Point", "coordinates": [-86.58794125003949, 49.68006923771526]}}, {"type": "Feature", "properties": {"norad_id": 30724, "name": "FENGYUN 1C DEB", "group": "fengyun-1c-debris", "lat": -66.42407571162958, "lon": -20.134667836289392, "alt_km": 711.6379281400577, "timestamp": "2025-12-22T11:33:20.717736+00:00", "meta": {"OBJECT_NAME": "FENGYUN 1C DEB", "OBJECT_ID": "1999-025ASJ", "EPOCH": "2025-12-21T06:50:28.140288", "MEAN_MOTION": 14.37068864, "ECCENTRICITY": 0.0093076, "INCLINATION": 99.3156, "RA_OF_ASC_NODE": 180.6656, "ARG_OF_PERICENTER": 234.9, "MEAN_ANOMALY": 306.7375, "EPHEMERIS_TYPE": 0, "CLASSIFICATION_TYPE": "U", "NORAD_CAT_ID": 30724, "ELEMENT_SET_NO": 999, "REV_AT_EPOCH": 98575, "BSTAR": 0.00034681, "MEAN_MOTION_DOT": 1.029e-05, "MEAN_MOTION_DDOT": 0}, "tle": {"line1": "1 30724U 99025ASJ 25355.28504792  .00001029  00000+0  34681-3 0  9994", "line2": "2 30724  99.3156 180.6656 0093076 234.9000 306.7375 14.37068864985758"}}, "geometry": {"type": "Point", "coordinates": [-20.134667836289392, -66.42407571162958]}}, {"type": "Feature", "properties": {"norad_id": 30725, "name": "FENGYUN 1C DEB", "group": "fengyun-1c-debris", "lat": 30.8896854531131, "lon": 59.96252025653677, "alt_km": 781.7703946285183, "timestamp": "2025-12-22T11:33:20.717746+00:00", "meta": {"OBJECT_NAME": "FENGYUN 1C DEB", "OBJECT_ID": "1999-025ASK", "EPOCH": "2025-12-20T17:36:45.523872", "MEAN_MOTION": 14.16105535, "ECCENTRICITY": 0.0086877, "INCLINATION": 99.0073, "RA_OF_ASC_NODE": 63.6406, "ARG_OF_PERICENTER": 7.4593, "MEAN_ANOMALY": 119.0335, "EPHEMERIS_TYPE": 0, "CLASSIFICATION_TYPE": "U", "NORAD_CAT_ID": 30725, "ELEMENT_SET_NO": 999, "REV_AT_EPOCH": 96461, "BSTAR": 0.00092704, "MEAN_MOTION_DOT": 1.855e-05, "MEAN_MOTION_DDOT": 0}, "tle": {"line1": "1 30725U 99025ASK 25354.73386023  .00001855  00000+0  92704-3 0  9996", "line2": "2 30725  99.0073  63.6406 0086877   7.4593 119.0335 14.16105535964615"}}, "geometry": {"type": "Point", "coordinates": [59.96252025653677, 30.8896854531131]}}, {"type": "Feature", "properties": {"norad_id": 30726, "name": "FENGYUN 1C DEB", "group": "fengyun-1c-debris", "lat": -6.484293158280193, "lon": 177.44473007143725, "alt_km": 809.9169200505121, "timestamp": "2025-12-22T11:33:20.717756+00:00", "meta": {"OBJECT_NAME": "FENGYUN 1C DEB", "OBJECT_ID": "1999-025ASL", "EPOCH": "2025-12-21T23:02:43.713888", "MEAN_MOTION": 14.09334716, "ECCENTRICITY": 0.0078364, "INCLINATION": 99.2677, "RA_OF_ASC_NODE": 357.972, "ARG_OF_PERICENTER": 200.4291, "MEAN_ANOMALY": 222.9903, "EPHEMERIS_TYPE": 0, "CLASSIFICATION_TYPE": "U", "NORAD_CAT_ID": 30726, "ELEMENT_SET_NO": 999, "REV_AT_EPOCH": 96113, "BSTAR": 0.0010081, "MEAN_MOTION_DOT": 1.76e-05, "MEAN_MOTION_DDOT": 0}, "tle": {"line1": "1 30726U 99025ASL 25355.96022817  .00001760  00000+0  10081-2 0  9993", "line2": "2 30726  99.2677 357.9720 0078364 200.4291 222.9903 14.09334716961134"}}, "geometry": {"type": "Point", "coordinates": [177.44473007143725, -6.484293158280193]}}]}